[{"OBJECT_NAME":"KAZEOSAT 2","OBJECT_ID":"2014-033A","EPOCH":"2026-03-09T22:28:55.871328","MEAN_MOTION":14.85341889,"ECCENTRICITY":0.0007207,"INCLINATION":97.5485,"RA_OF_ASC_NODE":273.7466,"ARG_OF_PERICENTER":292.4947,"MEAN_ANOMALY":67.5505,"EPHEMERIS_TYPE":0,"CLASSIFICATION_TYPE":"U","NORAD_CAT_ID":40010,"ELEMENT_SET_NO":999,"REV_AT_EPOCH":63422,"BSTAR":0.00022131072,"MEAN_MOTION_DOT":1.854e-5,"MEAN_MOTION_DDOT":0},{"OBJECT_NAME":"FENGYUN 1C DEB","OBJECT_ID":"1999-025BVB","EPOCH":"2026-03-09T05:21:26.983008","MEAN_MOTION":14.37296725,"ECCENTRICITY":0.0212574,"INCLINATION":99.0908,"RA_OF_ASC_NODE":59.7824,"ARG_OF_PERICENTER":145.7863,"MEAN_ANOMALY":215.7231,"EPHEMERIS_TYPE":0,"CLASSIFICATION_TYPE":"U","NORAD_CAT_ID":31463,"ELEMENT_SET_NO":999,"REV_AT_EPOCH":65962,"BSTAR":0.00029358638,"MEAN_MOTION_DOT":1.08e-5,"MEAN_MOTION_DDOT":0}]
